[{"OBJECT_NAME":"STARLINK-31036","OBJECT_ID":"2023-192C","EPOCH":"2026-03-09T08:57:15.663744","MEAN_MOTION":15.30189055,"ECCENTRICITY":0.0001236,"INCLINATION":53.1619,"RA_OF_ASC_NODE":64.4708,"ARG_OF_PERICENTER":102.6931,"MEAN_ANOMALY":257.4208,"EPHEMERIS_TYPE":0,"CLASSIFICATION_TYPE":"U","NORAD_CAT_ID":58533,"ELEMENT_SET_NO":999,"REV_AT_EPOCH":12593,"BSTAR":-1.668516e-6,"MEAN_MOTION_DOT":-4.08e-6,"MEAN_MOTION_DDOT":0},{"OBJECT_NAME":"COSMOS 1869","OBJECT_ID":"1987-062A","EPOCH":"2026-03-09T20:30:29.271744","MEAN_MOTION":15.35392408,"ECCENTRICITY":0.00185772,"INCLINATION":82.5127,"RA_OF_ASC_NODE":201.6716,"ARG_OF_PERICENTER":61.4986,"MEAN_ANOMALY":298.8125,"EPHEMERIS_TYPE":0,"CLASSIFICATION_TYPE":"U","NORAD_CAT_ID":18214,"ELEMENT_SET_NO":999,"REV_AT_EPOCH":8931,"BSTAR":0.00042037944,"MEAN_MOTION_DOT":0.00014573,"MEAN_MOTION_DDOT":0}]
